[
    {
        "Altitude(m)": 612513.9525361516,
        "Argument of Periapsis(deg)": 0.0,
        "Eccentricity": 0.0,
        "Inclination(deg)": 60.0,
        "Latitude(deg)": -28.136030968303558,
        "Longitude(deg)": -42.086845709330944,
        "Mean Anomaly(deg)": -147.2727,
        "RAAN(deg)": 220.00000000000003,
        "Satellite Name": "Test1 981",
        "Satellite Number": 981,
        "Semi-Major Axis(m)": 6980739.136638005,
        "Time(s)": 0
    },
    {
        "Altitude(m)": 612708.3206119239,
        "Argument of Periapsis(deg)": 0.00010418945913296404,
        "Eccentricity": 0.0,
        "Inclination(deg)": 60.0,
        "Latitude(deg)": -28.647769656082207,
        "Longitude(deg)": -41.72961425475576,
        "Mean Anomaly(deg)": -146.65259385453814,
        "RAAN(deg)": 219.99957995086027,
        "Satellite Name": "Test1 981",
        "Satellite Number": 981,
        "Semi-Major Axis(m)": 6980739.136638005,
        "Time(s)": 10
    }
]